ORBCOMM FM33            
1 25983U 99065D   24219.84355891  .00002146  00000+0  74831-3 0  9995
2 25983  45.0292  51.4673 0008187 274.3121  85.6792 14.38051763290850
ORBCOMM FM36            
1 25984U 99065E   24219.24678565  .00002809  00000+0  10066-2 0  9991
2 25984  45.0389 141.2846 0002152 142.7966 217.3031 14.35971970289114
ORBCOMM FM35            
1 25985U 99065F   24219.52646660  .00001798  00000+0  66891-3 0  9998
2 25985  45.0390 142.9325 0003684 282.5540  77.4896 14.35444317289540
ORBCOMM FM34            
1 25986U 99065G   24219.84650190  .00002052  00000+0  75645-3 0  9998
2 25986  45.0384 141.9713 0002747 225.2353 134.8272 14.35428679289740
ORBCOMM FM38            
1 33060U 08031A   24219.59705645  .00003953  00000+0  56850-3 0  9999
2 33060  48.4420  11.2922 0005068 140.1185 220.0102 14.78139444868152
ORBCOMM FM41            
1 33061U 08031B   24219.60049477  .00003990  00000+0  57736-3 0  9991
2 33061  48.4453  18.1072 0004086 126.0322 281.6723 14.77859383867652
ORBCOMM FM29            
1 33062U 08031C   24219.59872017  .00003982  00000+0  57677-3 0  9999
2 33062  48.4403  26.1486 0005942 121.2916 321.0704 14.77813606867560
ORBCOMM FM39            
1 33063U 08031D   24219.81367550  .00003325  00000+0  49870-3 0  9993
2 33063  48.4410  46.3406 0006784  93.3714 266.7976 14.76737062867707
