<?xml version="1.0" encoding="UTF-8"?>
<ndm xmlns:xsi="http://www.w3.org/2001/XMLSchema-instance" xsi:noNamespaceSchemaLocation="https://sanaregistry.org/r/ndmxml_unqualified/ndmxml-2.0.0-master-2.0.xsd">
<omm id="CCSDS_OMM_VERS" version="2.0">
<header><CREATION_DATE/><ORIGINATOR/></header><body><segment><metadata><OBJECT_NAME>ORBCOMM FM33</OBJECT_NAME><OBJECT_ID>1999-065D</OBJECT_ID><CENTER_NAME>EARTH</CENTER_NAME><REF_FRAME>TEME</REF_FRAME><TIME_SYSTEM>UTC</TIME_SYSTEM><MEAN_ELEMENT_THEORY>SGP4</MEAN_ELEMENT_THEORY></metadata><data><meanElements><EPOCH>2024-08-06T20:14:43.489824</EPOCH><MEAN_MOTION>14.38051763</MEAN_MOTION><ECCENTRICITY>.0008187</ECCENTRICITY><INCLINATION>45.0292</INCLINATION><RA_OF_ASC_NODE>51.4673</RA_OF_ASC_NODE><ARG_OF_PERICENTER>274.3121</ARG_OF_PERICENTER><MEAN_ANOMALY>85.6792</MEAN_ANOMALY></meanElements><tleParameters><EPHEMERIS_TYPE>0</EPHEMERIS_TYPE><CLASSIFICATION_TYPE>U</CLASSIFICATION_TYPE><NORAD_CAT_ID>25983</NORAD_CAT_ID><ELEMENT_SET_NO>999</ELEMENT_SET_NO><REV_AT_EPOCH>29085</REV_AT_EPOCH><BSTAR>.74831E-3</BSTAR><MEAN_MOTION_DOT>.2146E-4</MEAN_MOTION_DOT><MEAN_MOTION_DDOT>0</MEAN_MOTION_DDOT></tleParameters></data></segment></body></omm>
<omm id="CCSDS_OMM_VERS" version="2.0">
<header><CREATION_DATE/><ORIGINATOR/></header><body><segment><metadata><OBJECT_NAME>ORBCOMM FM36</OBJECT_NAME><OBJECT_ID>1999-065E</OBJECT_ID><CENTER_NAME>EARTH</CENTER_NAME><REF_FRAME>TEME</REF_FRAME><TIME_SYSTEM>UTC</TIME_SYSTEM><MEAN_ELEMENT_THEORY>SGP4</MEAN_ELEMENT_THEORY></metadata><data><meanElements><EPOCH>2024-08-06T05:55:22.280160</EPOCH><MEAN_MOTION>14.35971970</MEAN_MOTION><ECCENTRICITY>.0002152</ECCENTRICITY><INCLINATION>45.0389</INCLINATION><RA_OF_ASC_NODE>141.2846</RA_OF_ASC_NODE><ARG_OF_PERICENTER>142.7966</ARG_OF_PERICENTER><MEAN_ANOMALY>217.3031</MEAN_ANOMALY></meanElements><tleParameters><EPHEMERIS_TYPE>0</EPHEMERIS_TYPE><CLASSIFICATION_TYPE>U</CLASSIFICATION_TYPE><NORAD_CAT_ID>25984</NORAD_CAT_ID><ELEMENT_SET_NO>999</ELEMENT_SET_NO><REV_AT_EPOCH>28911</REV_AT_EPOCH><BSTAR>.10066E-2</BSTAR><MEAN_MOTION_DOT>.2809E-4</MEAN_MOTION_DOT><MEAN_MOTION_DDOT>0</MEAN_MOTION_DDOT></tleParameters></data></segment></body></omm>
<omm id="CCSDS_OMM_VERS" version="2.0">
<header><CREATION_DATE/><ORIGINATOR/></header><body><segment><metadata><OBJECT_NAME>ORBCOMM FM35</OBJECT_NAME><OBJECT_ID>1999-065F</OBJECT_ID><CENTER_NAME>EARTH</CENTER_NAME><REF_FRAME>TEME</REF_FRAME><TIME_SYSTEM>UTC</TIME_SYSTEM><MEAN_ELEMENT_THEORY>SGP4</MEAN_ELEMENT_THEORY></metadata><data><meanElements><EPOCH>2024-08-06T12:38:06.714240</EPOCH><MEAN_MOTION>14.35444317</MEAN_MOTION><ECCENTRICITY>.0003684</ECCENTRICITY><INCLINATION>45.0390</INCLINATION><RA_OF_ASC_NODE>142.9325</RA_OF_ASC_NODE><ARG_OF_PERICENTER>282.5540</ARG_OF_PERICENTER><MEAN_ANOMALY>77.4896</MEAN_ANOMALY></meanElements><tleParameters><EPHEMERIS_TYPE>0</EPHEMERIS_TYPE><CLASSIFICATION_TYPE>U</CLASSIFICATION_TYPE><NORAD_CAT_ID>25985</NORAD_CAT_ID><ELEMENT_SET_NO>999</ELEMENT_SET_NO><REV_AT_EPOCH>28954</REV_AT_EPOCH><BSTAR>.66891E-3</BSTAR><MEAN_MOTION_DOT>.1798E-4</MEAN_MOTION_DOT><MEAN_MOTION_DDOT>0</MEAN_MOTION_DDOT></tleParameters></data></segment></body></omm>
<omm id="CCSDS_OMM_VERS" version="2.0">
<header><CREATION_DATE/><ORIGINATOR/></header><body><segment><metadata><OBJECT_NAME>ORBCOMM FM34</OBJECT_NAME><OBJECT_ID>1999-065G</OBJECT_ID><CENTER_NAME>EARTH</CENTER_NAME><REF_FRAME>TEME</REF_FRAME><TIME_SYSTEM>UTC</TIME_SYSTEM><MEAN_ELEMENT_THEORY>SGP4</MEAN_ELEMENT_THEORY></metadata><data><meanElements><EPOCH>2024-08-06T20:18:57.764160</EPOCH><MEAN_MOTION>14.35428679</MEAN_MOTION><ECCENTRICITY>.0002747</ECCENTRICITY><INCLINATION>45.0384</INCLINATION><RA_OF_ASC_NODE>141.9713</RA_OF_ASC_NODE><ARG_OF_PERICENTER>225.2353</ARG_OF_PERICENTER><MEAN_ANOMALY>134.8272</MEAN_ANOMALY></meanElements><tleParameters><EPHEMERIS_TYPE>0</EPHEMERIS_TYPE><CLASSIFICATION_TYPE>U</CLASSIFICATION_TYPE><NORAD_CAT_ID>25986</NORAD_CAT_ID><ELEMENT_SET_NO>999</ELEMENT_SET_NO><REV_AT_EPOCH>28974</REV_AT_EPOCH><BSTAR>.75645E-3</BSTAR><MEAN_MOTION_DOT>.2052E-4</MEAN_MOTION_DOT><MEAN_MOTION_DDOT>0</MEAN_MOTION_DDOT></tleParameters></data></segment></body></omm>
<omm id="CCSDS_OMM_VERS" version="2.0">
<header><CREATION_DATE/><ORIGINATOR/></header><body><segment><metadata><OBJECT_NAME>ORBCOMM FM38</OBJECT_NAME><OBJECT_ID>2008-031A</OBJECT_ID><CENTER_NAME>EARTH</CENTER_NAME><REF_FRAME>TEME</REF_FRAME><TIME_SYSTEM>UTC</TIME_SYSTEM><MEAN_ELEMENT_THEORY>SGP4</MEAN_ELEMENT_THEORY></metadata><data><meanElements><EPOCH>2024-08-06T14:19:45.677280</EPOCH><MEAN_MOTION>14.78139444</MEAN_MOTION><ECCENTRICITY>.0005068</ECCENTRICITY><INCLINATION>48.4420</INCLINATION><RA_OF_ASC_NODE>11.2922</RA_OF_ASC_NODE><ARG_OF_PERICENTER>140.1185</ARG_OF_PERICENTER><MEAN_ANOMALY>220.0102</MEAN_ANOMALY></meanElements><tleParameters><EPHEMERIS_TYPE>0</EPHEMERIS_TYPE><CLASSIFICATION_TYPE>U</CLASSIFICATION_TYPE><NORAD_CAT_ID>33060</NORAD_CAT_ID><ELEMENT_SET_NO>999</ELEMENT_SET_NO><REV_AT_EPOCH>86815</REV_AT_EPOCH><BSTAR>.5685E-3</BSTAR><MEAN_MOTION_DOT>.3953E-4</MEAN_MOTION_DOT><MEAN_MOTION_DDOT>0</MEAN_MOTION_DDOT></tleParameters></data></segment></body></omm>
<omm id="CCSDS_OMM_VERS" version="2.0">
<header><CREATION_DATE/><ORIGINATOR/></header><body><segment><metadata><OBJECT_NAME>ORBCOMM FM41</OBJECT_NAME><OBJECT_ID>2008-031B</OBJECT_ID><CENTER_NAME>EARTH</CENTER_NAME><REF_FRAME>TEME</REF_FRAME><TIME_SYSTEM>UTC</TIME_SYSTEM><MEAN_ELEMENT_THEORY>SGP4</MEAN_ELEMENT_THEORY></metadata><data><meanElements><EPOCH>2024-08-06T14:24:42.748128</EPOCH><MEAN_MOTION>14.77859383</MEAN_MOTION><ECCENTRICITY>.0004086</ECCENTRICITY><INCLINATION>48.4453</INCLINATION><RA_OF_ASC_NODE>18.1072</RA_OF_ASC_NODE><ARG_OF_PERICENTER>126.0322</ARG_OF_PERICENTER><MEAN_ANOMALY>281.6723</MEAN_ANOMALY></meanElements><tleParameters><EPHEMERIS_TYPE>0</EPHEMERIS_TYPE><CLASSIFICATION_TYPE>U</CLASSIFICATION_TYPE><NORAD_CAT_ID>33061</NORAD_CAT_ID><ELEMENT_SET_NO>999</ELEMENT_SET_NO><REV_AT_EPOCH>86765</REV_AT_EPOCH><BSTAR>.57736E-3</BSTAR><MEAN_MOTION_DOT>.399E-4</MEAN_MOTION_DOT><MEAN_MOTION_DDOT>0</MEAN_MOTION_DDOT></tleParameters></data></segment></body></omm>
<omm id="CCSDS_OMM_VERS" version="2.0">
<header><CREATION_DATE/><ORIGINATOR/></header><body><segment><metadata><OBJECT_NAME>ORBCOMM FM29</OBJECT_NAME><OBJECT_ID>2008-031C</OBJECT_ID><CENTER_NAME>EARTH</CENTER_NAME><REF_FRAME>TEME</REF_FRAME><TIME_SYSTEM>UTC</TIME_SYSTEM><MEAN_ELEMENT_THEORY>SGP4</MEAN_ELEMENT_THEORY></metadata><data><meanElements><EPOCH>2024-08-06T14:22:09.422688</EPOCH><MEAN_MOTION>14.77813606</MEAN_MOTION><ECCENTRICITY>.0005942</ECCENTRICITY><INCLINATION>48.4403</INCLINATION><RA_OF_ASC_NODE>26.1486</RA_OF_ASC_NODE><ARG_OF_PERICENTER>121.2916</ARG_OF_PERICENTER><MEAN_ANOMALY>321.0704</MEAN_ANOMALY></meanElements><tleParameters><EPHEMERIS_TYPE>0</EPHEMERIS_TYPE><CLASSIFICATION_TYPE>U</CLASSIFICATION_TYPE><NORAD_CAT_ID>33062</NORAD_CAT_ID><ELEMENT_SET_NO>999</ELEMENT_SET_NO><REV_AT_EPOCH>86756</REV_AT_EPOCH><BSTAR>.57677E-3</BSTAR><MEAN_MOTION_DOT>.3982E-4</MEAN_MOTION_DOT><MEAN_MOTION_DDOT>0</MEAN_MOTION_DDOT></tleParameters></data></segment></body></omm>
<omm id="CCSDS_OMM_VERS" version="2.0">
<header><CREATION_DATE/><ORIGINATOR/></header><body><segment><metadata><OBJECT_NAME>ORBCOMM FM39</OBJECT_NAME><OBJECT_ID>2008-031D</OBJECT_ID><CENTER_NAME>EARTH</CENTER_NAME><REF_FRAME>TEME</REF_FRAME><TIME_SYSTEM>UTC</TIME_SYSTEM><MEAN_ELEMENT_THEORY>SGP4</MEAN_ELEMENT_THEORY></metadata><data><meanElements><EPOCH>2024-08-06T19:31:41.563200</EPOCH><MEAN_MOTION>14.76737062</MEAN_MOTION><ECCENTRICITY>.0006784</ECCENTRICITY><INCLINATION>48.4410</INCLINATION><RA_OF_ASC_NODE>46.3406</RA_OF_ASC_NODE><ARG_OF_PERICENTER>93.3714</ARG_OF_PERICENTER><MEAN_ANOMALY>266.7976</MEAN_ANOMALY></meanElements><tleParameters><EPHEMERIS_TYPE>0</EPHEMERIS_TYPE><CLASSIFICATION_TYPE>U</CLASSIFICATION_TYPE><NORAD_CAT_ID>33063</NORAD_CAT_ID><ELEMENT_SET_NO>999</ELEMENT_SET_NO><REV_AT_EPOCH>86770</REV_AT_EPOCH><BSTAR>.4987E-3</BSTAR><MEAN_MOTION_DOT>.3325E-4</MEAN_MOTION_DOT><MEAN_MOTION_DDOT>0</MEAN_MOTION_DDOT></tleParameters></data></segment></body></omm>

</ndm>
